{"type": "FeatureCollection", "features": [ {"type": "Feature", "properties": {"norad_id": 66588, "name": "STARLINK-36076", "group": "last-30-days", "lat": -42.83017504732952, "lon": 96.39963851531957, "alt_km": 446.3752126284453, "timestamp": "2025-12-14T20:40:30.515329+00:00", "meta": {"OBJECT_NAME": "STARLINK-36076", "OBJECT_ID": "2025-270A", "EPOCH": "2025-12-14T06:00:02.999808", "MEAN_MOTION": 15.40690335, "ECCENTRICITY": 0.00017229, "INCLINATION": 42.9997, "RA_OF_ASC_NODE": 184.0725, "ARG_OF_PERICENTER": 243.0212, "MEAN_ANOMALY": 235.9414, "EPHEMERIS_TYPE": 0, "CLASSIFICATION_TYPE": "U", "NORAD_CAT_ID": 66588, "ELEMENT_SET_NO": 999, "REV_AT_EPOCH": 464, "BSTAR": 0.0001398571, "MEAN_MOTION_DOT": 5.541e-05, "MEAN_MOTION_DDOT": 0}, "tle": {"line1": "1 66588U 25270A   25348.25003472  .00005541  00000+0  13986-3 0  9998", "line2": "2 66588  42.9997 184.0725 0001722 243.0212 235.9414 15.40690335  4646"}}, "geometry": {"type": "Point", "coordinates": [96.39963851531957, -42.83017504732952]}}, {"type": "Feature", "properties": {"norad_id": 66589, "name": "STARLINK-35447", "group": "last-30-days", "lat": 5.240417950790982, "lon": -174.02969694154683, "alt_km": 414.7058775198002, "timestamp": "2025-12-14T20:40:30.515339+00:00", "meta": {"OBJECT_NAME": "STARLINK-35447", "OBJECT_ID": "2025-270B", "EPOCH": "2025-12-14T00:32:26.215296", "MEAN_MOTION": 15.50334967, "ECCENTRICITY": 0.00011654, "INCLINATION": 42.9995, "RA_OF_ASC_NODE": 185.2277, "ARG_OF_PERICENTER": 309.7204, "MEAN_ANOMALY": 50.3553, "EPHEMERIS_TYPE": 0, "CLASSIFICATION_TYPE": "U", "NORAD_CAT_ID": 66589, "ELEMENT_SET_NO": 999, "REV_AT_EPOCH": 465, "BSTAR": -0.0013753722, "MEAN_MOTION_DOT": -0.00079519, "MEAN_MOTION_DDOT": 0}, "tle": {"line1": "1 66589U 25270B   25348.02252564 -.00079519  00000+0 -13754-2 0  9992", "line2": "2 66589  42.9995 185.2277 0001165 309.7204  50.3553 15.50334967  4653"}}, "geometry": {"type": "Point", "coordinates": [-174.02969694154683, 5.240417950790982]}}, {"type": "Feature", "properties": {"norad_id": 66590, "name": "STARLINK-35429", "group": "last-30-days", "lat": 4.818946290035329, "lon": -174.48592513246444, "alt_km": 413.8707005491333, "timestamp": "2025-12-14T20:40:30.515352+00:00", "meta": {"OBJECT_NAME": "STARLINK-35429", "OBJECT_ID": "2025-270C", "EPOCH": "2025-12-14T00:32:52.784160", "MEAN_MOTION": 15.50571403, "ECCENTRICITY": 0.00017382, "INCLINATION": 42.9994, "RA_OF_ASC_NODE": 185.2302, "ARG_OF_PERICENTER": 269.5857, "MEAN_ANOMALY": 90.4804, "EPHEMERIS_TYPE": 0, "CLASSIFICATION_TYPE": "U", "NORAD_CAT_ID": 66590, "ELEMENT_SET_NO": 999, "REV_AT_EPOCH": 465, "BSTAR": 0.0012042426, "MEAN_MOTION_DOT": 0.0007093, "MEAN_MOTION_DDOT": 0}, "tle": {"line1": "1 66590U 25270C   25348.02283315  .00070930  00000+0  12042-2 0  9997", "line2": "2 66590  42.9994 185.2302 0001738 269.5857  90.4804 15.50571403  4658"}}, "geometry": {"type": "Point", "coordinates": [-174.48592513246444, 4.818946290035329]}}, {"type": "Feature", "properties": {"norad_id": 66591, "name": "STARLINK-36058", "group": "last-30-days", "lat": 7.403751121759407, "lon": -171.66876166202516, "alt_km": 413.34825024075417, "timestamp": "2025-12-14T20:40:30.515363+00:00", "meta": {"OBJECT_NAME": "STARLINK-36058", "OBJECT_ID": "2025-270D", "EPOCH": "2025-12-14T00:00:04.000320", "MEAN_MOTION": 15.50496812, "ECCENTRICITY": 0.00029893, "INCLINATION": 42.9998, "RA_OF_ASC_NODE": 185.3554, "ARG_OF_PERICENTER": 275.6502, "MEAN_ANOMALY": 320.9227, "EPHEMERIS_TYPE": 0, "CLASSIFICATION_TYPE": "U", "NORAD_CAT_ID": 66591, "ELEMENT_SET_NO": 999, "REV_AT_EPOCH": 460, "BSTAR": 0.0022716383, "MEAN_MOTION_DOT": 0.00134859, "MEAN_MOTION_DDOT": 0}, "tle": {"line1": "1 66591U 25270D   25348.00004630  .00134859  00000+0  22716-2 0  9997", "line2": "2 66591  42.9998 185.3554 0002989 275.6502 320.9227 15.50496812  4602"}}, "geometry": {"type": "Point", "coordinates": [-171.66876166202516, 7.403751121759407]}}, {"type": "Feature", "properties": {"norad_id": 66592, "name": "STARLINK-36066", "group": "last-30-days", "lat": -23.915078424236416, "lon": 152.01219656401875, "alt_km": 449.30515324841963, "timestamp": "2025-12-14T20:40:30.515373+00:00", "meta": {"OBJECT_NAME": "STARLINK-36066", "OBJECT_ID": "2025-270E", "EPOCH": "2025-12-14T06:00:02.999808", "MEAN_MOTION": 15.42348918, "ECCENTRICITY": 0.00015638, "INCLINATION": 43.0001, "RA_OF_ASC_NODE": 183.9535, "ARG_OF_PERICENTER": 277.7284, "MEAN_ANOMALY": 250.2581, "EPHEMERIS_TYPE": 0, "CLASSIFICATION_TYPE": "U", "NORAD_CAT_ID": 66592, "ELEMENT_SET_NO": 999, "REV_AT_EPOCH": 454, "BSTAR": -0.059047447, "MEAN_MOTION_DOT": -0.02325494, "MEAN_MOTION_DDOT": 0}, "tle": {"line1": "1 66592U 25270E   25348.25003472 -.02325494  00000+0 -59047-1 0  9995", "line2": "2 66592  43.0001 183.9535 0001563 277.7284 250.2581 15.42348918  4545"}}, "geometry": {"type": "Point", "coordinates": [152.01219656401875, -23.915078424236416]}}, {"type": "Feature", "properties": {"norad_id": 66593, "name": "STARLINK-36031", "group": "last-30-days", "lat": 10.017748000604879, "lon": -168.7686801626749, "alt_km": 413.294906285706, "timestamp": "2025-12-14T20:40:30.515383+00:00", "meta": {"OBJECT_NAME": "STARLINK-36031", "OBJECT_ID": "2025-270F", "EPOCH": "2025-12-14T00:30:54.250272", "MEAN_MOTION": 15.50572787, "ECCENTRICITY": 0.00017208, "INCLINATION": 42.9997, "RA_OF_ASC_NODE": 185.2188, "ARG_OF_PERICENTER": 265.4013, "MEAN_ANOMALY": 94.665, "EPHEMERIS_TYPE": 0, "CLASSIFICATION_TYPE": "U", "NORAD_CAT_ID": 66593, "ELEMENT_SET_NO": 999, "REV_AT_EPOCH": 454, "BSTAR": 0.0014075535, "MEAN_MOTION_DOT": 0.00083096, "MEAN_MOTION_DDOT": 0}, "tle": {"line1": "1 66593U 25270F   25348.02146123  .00083096  00000+0  14076-2 0  9991", "line2": "2 66593  42.9997 185.2188 0001720 265.4013  94.6650 15.50572787  4545"}}, "geometry": {"type": "Point", "coordinates": [-168.7686801626749, 10.017748000604879]}}, {"type": "Feature", "properties": {"norad_id": 66594, "name": "STARLINK-36032", "group": "last-30-days", "lat": 11.246463423692857, "lon": -167.37781466877783, "alt_km": 412.9242892092361, "timestamp": "2025-12-14T20:40:30.515395+00:00", "meta": {"OBJECT_NAME": "STARLINK-36032", "OBJECT_ID": "2025-270G", "EPOCH": "2025-12-14T00:00:04.000320", "MEAN_MOTION": 15.5050269, "ECCENTRICITY": 0.00016318, "INCLINATION": 42.9998, "RA_OF_ASC_NODE": 185.341, "ARG_OF_PERICENTER": 276.5265, "MEAN_ANOMALY": 325.8, "EPHEMERIS_TYPE": 0, "CLASSIFICATION_TYPE": "U", "NORAD_CAT_ID": 66594, "ELEMENT_SET_NO": 999, "REV_AT_EPOCH": 434, "BSTAR": 0.0020735286, "MEAN_MOTION_DOT": 0.00122896, "MEAN_MOTION_DDOT": 0}, "tle": {"line1": "1 66594U 25270G   25348.00004630  .00122896  00000+0  20735-2 0  9997", "line2": "2 66594  42.9998 185.3410 0001631 276.5265 325.8000 15.50502690  4341"}}, "geometry": {"type": "Point", "coordinates": [-167.37781466877783, 11.246463423692857]}}, {"type": "Feature", "properties": {"norad_id": 66595, "name": "STARLINK-35711", "group": "last-30-days", "lat": 12.509704069409416, "lon": -165.93139966306188, "alt_km": 413.16452275077063, "timestamp": "2025-12-14T20:40:30.515405+00:00", "meta": {"OBJECT_NAME": "STARLINK-35711", "OBJECT_ID": "2025-270H", "EPOCH": "2025-12-14T00:29:54.926304", "MEAN_MOTION": 15.5056412, "ECCENTRICITY": 0.00016069, "INCLINATION": 42.9995, "RA_OF_ASC_NODE": 185.2128, "ARG_OF_PERICENTER": 263.7365, "MEAN_ANOMALY": 96.3312, "EPHEMERIS_TYPE": 0, "CLASSIFICATION_TYPE": "U", "NORAD_CAT_ID": 66595, "ELEMENT_SET_NO": 999, "REV_AT_EPOCH": 465, "BSTAR": 0.00093576363, "MEAN_MOTION_DOT": 0.00054912, "MEAN_MOTION_DDOT": 0}, "tle": {"line1": "1 66595U 25270H   25348.02077461  .00054912  00000+0  93576-3 0  9999", "line2": "2 66595  42.9995 185.2128 0001606 263.7365  96.3312 15.50564120  4651"}}, "geometry": {"type": "Point", "coordinates": [-165.93139966306188, 12.509704069409416]}}, {"type": "Feature", "properties": {"norad_id": 66596, "name": "STARLINK-35811", "group": "last-30-days", "lat": -36.50551260910044, "lon": 127.90225987886956, "alt_km": 445.83197152298544, "timestamp": "2025-12-14T20:40:30.515415+00:00", "meta": {"OBJECT_NAME": "STARLINK-35811", "OBJECT_ID": "2025-270J", "EPOCH": "2025-12-14T06:00:02.999808", "MEAN_MOTION": 15.40691532, "ECCENTRICITY": 0.00021454, "INCLINATION": 42.9998, "RA_OF_ASC_NODE": 184.01, "ARG_OF_PERICENTER": 266.799, "MEAN_ANOMALY": 237.1388, "EPHEMERIS_TYPE": 0, "CLASSIFICATION_TYPE": "U", "NORAD_CAT_ID": 66596, "ELEMENT_SET_NO": 999, "REV_AT_EPOCH": 475, "BSTAR": 0.00021733345, "MEAN_MOTION_DOT": 8.783e-05, "MEAN_MOTION_DDOT": 0}, "tle": {"line1": "1 66596U 25270J   25348.25003472  .00008783  00000+0  21733-3 0  9997", "line2": "2 66596  42.9998 184.0100 0002145 266.7990 237.1388 15.40691532  4754"}}, "geometry": {"type": "Point", "coordinates": [127.90225987886956, -36.50551260910044]}}, {"type": "Feature", "properties": {"norad_id": 66597, "name": "STARLINK-35820", "group": "last-30-days", "lat": -7.60347550057382, "lon": 172.13163932233445, "alt_km": 442.0822468045599, "timestamp": "2025-12-14T20:40:30.515425+00:00", "meta": {"OBJECT_NAME": "STARLINK-35820", "OBJECT_ID": "2025-270K", "EPOCH": "2025-12-14T06:00:02.999808", "MEAN_MOTION": 15.44227723, "ECCENTRICITY": 0.00012601, "INCLINATION": 42.9997, "RA_OF_ASC_NODE": 183.9032, "ARG_OF_PERICENTER": 273.5732, "MEAN_ANOMALY": 275.274, "EPHEMERIS_TYPE": 0, "CLASSIFICATION_TYPE": "U", "NORAD_CAT_ID": 66597, "ELEMENT_SET_NO": 999, "REV_AT_EPOCH": 475, "BSTAR": -0.050420793, "MEAN_MOTION_DOT": -0.02100991, "MEAN_MOTION_DDOT": 0}, "tle": {"line1": "1 66597U 25270K   25348.25003472 -.02100991  00000+0 -50421-1 0  9990", "line2": "2 66597  42.9997 183.9032 0001260 273.5732 275.2740 15.44227723  4759"}}, "geometry": {"type": "Point", "coordinates": [172.13163932233445, -7.60347550057382]}}]}